NORAD_CAT_ID,OBJECT_NAME,OBJECT_TYPE,EPOCH,MEAN_MOTION,ECCENTRICITY,INCLINATION,RA_OF_ASC_NODE,ARG_OF_PERICENTER,MEAN_ANOMALY,BSTAR,MEAN_MOTION_DOT,MEAN_MOTION_DDOT,TLE_LINE0,TLE_LINE1,TLE_LINE2,SEMIMAJOR_AXIS,PERIOD,APOGEE,PERIGEE,DECAYED
55317.0,STARLINK-5265,PAYLOAD,2024-06-19 05:19:24,14.98329079,0.0003054,69.9993,149.0811,269.6023,90.4786,-3.4908e-06,-1.35e-06,0.0,0 STARLINK-5265,1 55317U 23010BA  24171.22181042 -.00000135  00000-0 -34908-5 0  9992,2 55317  69.9993 149.0811 0003054 269.6023  90.4786 14.98329079 79329,6950.196,96.107,574.183,569.938,0.0
55317.0,STARLINK-5265,PAYLOAD,2024-06-19 08:31:40,14.98329702,0.0003044,69.9993,148.7444,269.6221,90.4589,4.1661e-06,-4.3e-07,0.0,0 STARLINK-5265,1 55317U 23010BA  24171.35532986 -.00000043  00000-0  41661-5 0  9994,2 55317  69.9993 148.7444 0003044 269.6221  90.4589 14.98329702 80524,6950.194,96.107,574.174,569.943,0.0
55317.0,STARLINK-5265,PAYLOAD,2024-06-19 22:56:53,14.98329469,0.000304,69.9994,147.2296,269.6799,90.4011,1.4097e-05,7.5e-07,0.0,0 STARLINK-5265,1 55317U 23010BA  24171.95616975  .00000075  00000-0  14097-4 0  9997,2 55317  69.9994 147.2296 0003040 269.6799  90.4011 14.98329469 80610,6950.195,96.107,574.172,569.947,0.0
55317.0,STARLINK-5265,PAYLOAD,2024-06-20 05:21:25,14.98330633,0.0003037,69.9994,146.5564,269.7448,90.3363,3.5524e-05,3.31e-06,0.0,0 STARLINK-5265,1 55317U 23010BA  24172.22320841  .00000331  00000-0  35524-4 0  9995,2 55317  69.9994 146.5564 0003037 269.7448  90.3363 14.98330633 79474,6950.191,96.107,574.167,569.945,0.0
55317.0,STARLINK-5265,PAYLOAD,2024-06-20 08:33:41,14.98331165,0.0003028,69.9994,146.2197,269.8186,90.2626,4.0555e-05,3.91e-06,0.0,0 STARLINK-5265,1 55317U 23010BA  24172.35672785  .00000391  00000-0  40555-4 0  9992,2 55317  69.9994 146.2197 0003028 269.8186  90.2626 14.98331165 80679,6950.189,96.107,574.159,569.95,0.0
55317.0,STARLINK-5265,PAYLOAD,2024-06-20 22:58:54,14.98327731,0.000297,69.9995,144.7048,270.3864,89.6954,-2.2048e-06,-1.19e-06,0.0,0 STARLINK-5265,1 55317U 23010BA  24172.95757140 -.00000119  00000-0 -22048-5 0  9995,2 55317  69.9995 144.7048 0002970 270.3864  89.6954 14.98327731 80763,6950.2,96.107,574.129,570.001,0.0
55317.0,STARLINK-5265,PAYLOAD,2024-06-21 05:23:26,14.98328802,0.0002921,69.9996,144.0319,269.188,90.8944,1.3182e-05,6.4e-07,0.0,0 STARLINK-5265,1 55317U 23010BA  24173.22461053  .00000064  00000-0  13182-4 0  9996,2 55317  69.9996 144.0319 0002921 269.1880  90.8944 14.98328802 79624,6950.197,96.107,574.092,570.031,0.0
55317.0,STARLINK-5265,PAYLOAD,2024-06-21 08:35:42,14.98330283,0.0002913,69.9996,143.6953,269.2575,90.8251,2.859e-05,2.48e-06,0.0,0 STARLINK-5265,1 55317U 23010BA  24173.35812915  .00000248  00000-0  28590-4 0  9990,2 55317  69.9996 143.6953 0002913 269.2575  90.8251 14.98330283 80827,6950.192,96.107,574.082,570.032,0.0
55317.0,STARLINK-5265,PAYLOAD,2024-06-21 23:00:55,14.9832887,0.0002822,69.9998,142.1809,267.5855,92.4981,-1.8388e-05,-3.12e-06,0.0,0 STARLINK-5265,1 55317U 23010BA  24173.95897143 -.00000312  00000-0 -18388-4 0  9990,2 55317  69.9998 142.1809 0002822 267.5855  92.4981 14.98328870 80911,6950.196,96.107,574.023,570.1,0.0
55317.0,STARLINK-5265,PAYLOAD,2024-06-22 08:37:43,14.98330489,0.0002814,69.9999,141.1711,266.778,93.3057,1.3005e-06,-7.7e-07,0.0,0 STARLINK-5265,1 55317U 23010BA  24174.35952988 -.00000077  00000-0  13005-5 0  9993,2 55317  69.9999 141.1711 0002814 266.7780  93.3057 14.98330489 79799,6950.191,96.107,574.012,570.101,0.0
55317.0,STARLINK-5265,PAYLOAD,2024-06-22 23:02:55,14.98332362,0.0002844,69.9996,139.6554,265.9701,94.1132,3.9452e-05,3.78e-06,0.0,0 STARLINK-5265,1 55317U 23010BA  24174.96036698  .00000378  00000-0  39452-4 0  9997,2 55317  69.9996 139.6554 0002844 265.9701  94.1132 14.98332362 81068,6950.186,96.107,574.027,570.074,0.0
55317.0,STARLINK-5265,PAYLOAD,2024-06-23 07:03:35,14.98334056,0.0002878,69.9996,138.8135,267.5799,92.5031,5.358e-05,5.46e-06,0.0,0 STARLINK-5265,1 55317U 23010BA  24175.29416493  .00000546  00000-0  53580-4 0  9994,2 55317  69.9996 138.8135 0002878 267.5799  92.5031 14.98334056 81114,6950.18,96.107,574.046,570.045,0.0
55317.0,STARLINK-5265,PAYLOAD,2024-06-23 23:04:56,14.98329431,0.0002845,69.9997,137.1308,267.3565,92.7269,2.6806e-06,-6.1e-07,0.0,0 STARLINK-5265,1 55317U 23010BA  24175.96176845 -.00000061  00000-0  26806-5 0  9997,2 55317  69.9997 137.1308 0002845 267.3565  92.7269 14.98329431 81219,6950.195,96.107,574.037,570.082,0.0
55317.0,STARLINK-5265,PAYLOAD,2024-06-24 05:29:29,14.98329779,0.0002846,69.9997,136.4575,266.9287,93.1546,6.263e-06,-1.8e-07,0.0,0 STARLINK-5265,1 55317U 23010BA  24176.22880809 -.00000018  00000-0  62630-5 0  9996,2 55317  69.9997 136.4575 0002846 266.9287  93.1546 14.98329779 80075,6950.194,96.107,574.037,570.081,0.0
55317.0,STARLINK-5265,PAYLOAD,2024-06-24 07:05:37,14.98330188,0.0002861,69.9997,136.2892,267.76,92.3231,9.3373e-06,1.8e-07,0.0,0 STARLINK-5265,1 55317U 23010BA  24176.29556774  .00000018  00000-0  93373-5 0  9991,2 55317  69.9997 136.2892 0002861 267.7600  92.3231 14.98330188 81260,6950.192,96.107,574.046,570.069,0.0
55317.0,STARLINK-5265,PAYLOAD,2024-06-24 21:30:49,14.98330824,0.0002837,69.9998,134.7743,267.8768,92.2066,-4.223e-05,-5.97e-06,0.0,0 STARLINK-5265,1 55317U 23010BA  24176.89640857 -.00000597  00000-0 -42230-4 0  9992,2 55317  69.9998 134.7743 0002837 267.8768  92.2066 14.98330824 81350,6950.19,96.107,574.027,570.084,0.0
55317.0,STARLINK-5265,PAYLOAD,2024-06-25 05:31:30,14.9833029,0.0002844,69.9998,133.9331,268.2611,91.8222,-4.1171e-05,-5.84e-06,0.0,0 STARLINK-5265,1 55317U 23010BA  24177.23020883 -.00000584  00000-0 -41171-4 0  9991,2 55317  69.9998 133.9331 0002844 268.2611  91.8222 14.98330290 80225,6950.192,96.107,574.034,570.08,0.0
55317.0,STARLINK-5265,PAYLOAD,2024-06-25 07:07:38,14.98330825,0.0002842,69.9999,133.7649,268.322,91.7613,-3.4062e-05,-4.99e-06,0.0,0 STARLINK-5265,1 55317U 23010BA  24177.29696828 -.00000499  00000-0 -34062-4 0  9991,2 55317  69.9999 133.7649 0002842 268.3220  91.7613 14.98330825 81410,6950.19,96.107,574.031,570.08,0.0
55317.0,STARLINK-5265,PAYLOAD,2024-06-25 21:32:50,14.98329879,0.0002865,69.9999,132.2505,268.3521,91.7309,1.5026e-05,8.6e-07,0.0,0 STARLINK-5265,1 55317U 23010BA  24177.89780729  .00000086  00000-0  15026-4 0  9990,2 55317  69.9999 132.2505 0002865 268.3521  91.7309 14.98329879 81503,6950.193,96.107,574.049,570.067,0.0
55317.0,STARLINK-5265,PAYLOAD,2024-06-26 05:33:30,14.9833221,0.0002829,69.9999,131.4085,268.5981,91.4854,4.4908e-05,4.43e-06,0.0,0 STARLINK-5265,1 55317U 23010BA  24178.23160491  .00000443  00000-0  44908-4 0  9995,2 55317  69.9999 131.4085 0002829 268.5981  91.4854 14.98332210 80378,6950.186,96.107,574.017,570.085,0.0
55317.0,STARLINK-5265,PAYLOAD,2024-06-27 05:35:31,14.98330797,0.0002724,70.0003,128.8844,266.4895,93.5952,5.1277e-05,5.19e-06,0.0,0 STARLINK-5265,1 55317U 23010BA  24179.23300495  .00000519  00000-0  51277-4 0  9997,2 55317  70.0003 128.8844 0002724 266.4895  93.5952 14.98330797 80522,6950.19,96.107,573.949,570.162,0.0
55317.0,STARLINK-5265,PAYLOAD,2024-06-27 21:36:52,14.98329145,0.0002714,70.0003,127.2008,269.8771,90.2077,-3.3048e-05,-4.87e-06,0.0,0 STARLINK-5265,1 55317U 23010BA  24179.90060849 -.00000487  00000-0 -33048-4 0  9999,2 55317  70.0003 127.2008 0002714 269.8771  90.2077 14.98329145 81805,6950.196,96.107,573.947,570.174,0.0
55317.0,STARLINK-5265,PAYLOAD,2024-06-28 05:37:32,14.98330549,0.0002719,70.0004,126.3592,269.9849,90.0998,-1.4221e-05,-2.63e-06,0.0,0 STARLINK-5265,1 55317U 23010BA  24180.23440718 -.00000263  00000-0 -14221-4 0  9998,2 55317  70.0004 126.3592 0002719 269.9849  90.0998 14.98330549 80670,6950.191,96.107,573.946,570.166,0.0
55317.0,STARLINK-5265,PAYLOAD,2024-06-28 13:38:12,14.9833229,0.0002702,70.0005,125.5177,269.2755,90.8095,1.4275e-05,7.7e-07,0.0,0 STARLINK-5265,1 55317U 23010BA  24180.56820502  .00000077  00000-0  14275-4 0  9997,2 55317  70.0005 125.5177 0002702 269.2755  90.8095 14.98332290 81900,6950.186,96.107,573.929,570.173,0.0
55317.0,STARLINK-5265,PAYLOAD,2024-06-28 21:38:52,14.98327642,0.0002707,70.0004,124.6758,264.546,95.5391,0.00015529,1.76e-05,0.0,0 STARLINK-5265,1 55317U 23010BA  24180.90200187  .00001760  00000-0  15529-3 0  9998,2 55317  70.0004 124.6758 0002707 264.5460  95.5391 14.98327642 81951,6950.2,96.107,573.947,570.184,0.0
55317.0,STARLINK-5265,PAYLOAD,2024-06-29 04:03:24,14.98339477,0.0002927,69.9998,124.0027,265.0669,95.0156,4.5362e-05,4.48e-06,0.0,0 STARLINK-5265,1 55317U 23010BA  24181.16903727  .00000448  00000-0  45362-4 0  9998,2 55317  69.9998 124.0027 0002927 265.0669  95.0156 14.98339477 80811,6950.164,96.106,574.063,569.994,0.0
55317.0,STARLINK-5265,PAYLOAD,2024-06-29 13:40:14,14.98326597,0.0002607,70.0005,122.9927,274.6731,85.413,-2.8396e-05,-4.32e-06,0.0,0 STARLINK-5265,1 55317U 23010BA  24181.56960784 -.00000432  00000-0 -28396-4 0  9991,2 55317  70.0005 122.9927 0002607 274.6731  85.4130 14.98326597 82052,6950.203,96.107,573.88,570.256,0.0
55317.0,STARLINK-5265,PAYLOAD,2024-06-29 23:17:03,14.9830855,0.0003013,70.0002,121.9824,271.106,88.9754,-0.00015833,-1.981e-05,0.0,0 STARLINK-5265,1 55317U 23010BA  24181.97018383 -.00001981  00000-0 -15833-3 0  9996,2 55317  70.0002 121.9824 0003013 271.1060  88.9754 14.98308550 82119,6950.259,96.108,574.218,570.03,0.0
55317.0,STARLINK-5265,PAYLOAD,2024-06-30 04:05:27,14.98314746,0.0003013,69.9998,121.4762,270.282,89.7993,-0.00014183,-1.784e-05,0.0,0 STARLINK-5265,1 55317U 23010BA  24182.17046125 -.00001784  00000-0 -14183-3 0  9992,2 55317  69.9998 121.4762 0003013 270.2820  89.7993 14.98314746 80969,6950.24,96.108,574.199,570.011,0.0
55317.0,STARLINK-5265,PAYLOAD,2024-06-30 13:42:15,14.98325499,0.0003034,69.9998,120.468,270.339,89.7421,-4.3623e-05,-6.13e-06,0.0,0 STARLINK-5265,1 55317U 23010BA  24182.57101423 -.00000613  00000-0 -43623-4 0  9991,2 55317  69.9998 120.4680 0003034 270.3390  89.7421 14.98325499 82205,6950.207,96.107,574.181,569.963,0.0
